OBJECT_NAME,OBJECT_ID,EPOCH,MEAN_MOTION,ECCENTRICITY,INCLINATION,RA_OF_ASC_NODE,ARG_OF_PERICENTER,MEAN_ANOMALY,EPHEMERIS_TYPE,CLASSIFICATION_TYPE,NORAD_CAT_ID,ELEMENT_SET_NO,REV_AT_EPOCH,BSTAR,MEAN_MOTION_DOT,MEAN_MOTION_DDOT
ONEWEB-0597,2022-166X,2026-07-21T02:58:29.830368,13.21824491,.00019418,87.9228,237.2326,94.6557,265.4799,0,U,54663,999,17602,.75126597E-4,.44E-6,0
ONEWEB-0600,2022-166Y,2026-07-21T13:25:52.938336,13.21826315,.00019909,87.9230,237.1373,100.8656,259.2702,0,U,54664,999,17605,-.28809358E-4,.1E-7,0
ONEWEB-0601,2022-166Z,2026-07-21T02:19:44.624064,13.21825217,.00017556,87.9230,237.2453,96.1895,263.9439,0,U,54665,999,17618,.10771507E-4,.17E-6,0
ONEWEB-0602,2022-166AA,2026-07-21T12:24:06.059520,13.21823879,.00019937,87.9226,237.1675,101.8903,258.2454,0,U,54666,999,17608,.11893599E-3,.62E-6,0
ONEWEB-0603,2022-166AB,2026-07-21T03:27:33.506784,13.21823854,.00019759,87.9236,237.2017,95.9558,264.1801,0,U,54667,999,17596,.59168261E-4,.37E-6,0
ONEWEB-0604,2022-166AC,2026-07-21T12:15:36.988128,13.21824474,.0002063,87.9239,237.1450,96.2245,263.9124,0,U,54668,999,17597,.33279578E-3,.15E-5,0
ONEWEB-0605,2022-166AD,2026-07-21T12:05:55.710528,13.21824285,.00017149,87.9228,237.1565,79.3393,280.7934,0,U,54669,999,17604,.14971039E-3,.75E-6,0
ONEWEB-0606,2022-166AE,2026-07-21T03:32:24.069984,13.21825591,.00021901,87.9228,237.2399,97.6338,262.5044,0,U,54670,999,17605,.14117974E-4,.19E-6,0
ONEWEB-0607,2022-166AF,2026-07-21T02:43:58.469952,13.21825950,.00019264,87.9235,237.2199,97.3428,262.7925,0,U,54671,999,17602,-.91835823E-4,-.25E-6,0
ONEWEB-0608,2022-166AG,2026-07-21T11:58:39.401760,13.21824332,.00015333,87.9241,237.1411,87.3976,272.7334,0,U,54672,999,17608,.1698571E-3,.83E-6,0
ONEWEB-0610,2022-166AH,2026-07-21T04:13:35.944608,13.21825428,.00014471,87.9229,237.2160,97.6790,262.4508,0,U,54673,999,17594,-.15234771E-3,-.5E-6,0
ONEWEB-0611,2022-166AJ,2026-07-21T13:08:53.349216,13.21824300,.0002159,87.9225,237.1377,94.9259,265.2122,0,U,54674,999,17598,.15979934E-4,.2E-6,0
ONEWEB-0612,2022-166AK,2026-07-21T04:23:16.303776,13.21826768,.00018714,87.9240,237.2096,94.3767,265.7581,0,U,54675,999,17592,-.10245121E-3,-.29E-6,0
ONEWEB-0615,2022-166AL,2026-07-21T12:59:13.146432,13.21824101,.00022501,87.9229,237.1500,99.2343,260.9046,0,U,54676,999,17598,-.13266056E-3,-.42E-6,0
ONEWEB-0655,2022-166AM,2026-07-21T12:25:18.727968,13.21824033,.00019372,87.9228,237.1554,100.5963,259.5390,0,U,54677,999,17597,.15173265E-3,.76E-6,0
ONEWEB-0659,2022-166AN,2026-07-21T12:49:32.242944,13.21824641,.00020234,87.9229,237.1517,93.3664,266.7702,0,U,54678,999,17606,-.16930237E-3,-.57E-6,0
ONEWEB-0685,2022-166AP,2026-07-21T12:48:07.861248,13.22148510,.00027941,87.9146,237.1435,87.9800,272.1654,0,U,54679,999,17595,.71760219E-1,.29891E-3,0
ONEWEB-0712,2022-166AQ,2026-07-21T11:40:44.201280,13.16596052,.00019297,87.9077,221.9616,106.8469,253.2874,0,U,54680,999,17657,-.44824735E-4,-.4E-7,0
ONEWEB-0714,2022-166AR,2026-07-21T12:56:48.760800,13.21826364,.00020434,87.9223,237.1402,103.3988,256.7374,0,U,54681,999,17607,-.99026984E-4,-.28E-6,0
ONEWEB-0532,2023-004A,2026-07-21T10:21:29.595456,13.17649092,.00018428,87.9155,359.0517,82.3674,277.7667,0,U,55140,999,17209,.12715144E-3,.62E-6,0
ONEWEB-0533,2023-004B,2026-07-21T09:11:27.086496,13.12443005,.00016533,87.8972,343.8720,98.2879,261.8438,0,U,55141,999,17254,.13916698E-2,.513E-5,0
ONEWEB-0541,2023-004C,2026-07-21T10:32:57.130368,13.11418331,.00019768,87.8896,14.2401,88.5838,271.5516,0,U,55142,999,17043,-.82293838E-3,-.279E-5,0
ONEWEB-0543,2023-004D,2026-07-21T07:23:56.417568,13.18686762,.00019496,87.9192,328.6838,105.3352,254.7995,0,U,55143,999,17419,.15051848E-3,.72E-6,0
ONEWEB-0544,2023-004E,2026-07-21T09:03:29.465568,13.18684951,.00021138,87.9194,328.6693,101.1612,258.9758,0,U,55144,999,17420,.22403478E-3,.101E-5,0
ONEWEB-0560,2023-004F,2026-07-21T08:53:47.420736,13.18686004,.0002139,87.9192,328.6602,103.9560,256.1810,0,U,55145,999,17421,.32407945E-3,.141E-5,0
ONEWEB-0565,2023-004G,2026-07-21T08:44:04.608672,13.18685631,.00022396,87.9183,328.6862,92.0601,268.0788,0,U,55146,999,17420,.29874381E-3,.131E-5,0
ONEWEB-0567,2023-004H,2026-07-21T14:02:08.290752,13.18686510,.00022462,87.9194,328.6296,96.5364,263.6024,0,U,55147,999,17423,-.22621815E-3,-.76E-6,0
ONEWEB-0569,2023-004J,2026-07-21T14:13:34.828608,13.13470945,.0002808,87.8990,313.3766,107.0801,253.0635,0,U,55148,999,17469,.62378523E-3,.241E-5,0
ONEWEB-0570,2023-004K,2026-07-21T15:39:16.032960,13.18685226,.00019164,87.9193,328.6135,85.3171,274.8180,0,U,55149,999,17423,.65245506E-4,.39E-6,0
ONEWEB-0571,2023-004L,2026-07-21T08:12:31.423968,13.18686509,.0003152,87.9193,328.6750,94.9327,265.2165,0,U,55150,999,17420,.13541717E-3,.66E-6,0
