{"epoch":1784710044,"count":18256,"objects":[{"id":"54663","name":"ONEWEB-0597","type":"PAYLOAD","l1":"1 54663U 22166X   26202.12395637  .00000044  00000-0  75127-4 0  9993","l2":"2 54663  87.9228 237.2326 0001942  94.6557 265.4799 13.21824491176022"},{"id":"54664","name":"ONEWEB-0600","type":"PAYLOAD","l1":"1 54664U 22166Y   26202.55964049  .00000001  00000-0 -28809-4 0  9999","l2":"2 54664  87.9230 237.1373 0001991 100.8656 259.2702 13.21826315176056"},{"id":"54665","name":"ONEWEB-0601","type":"PAYLOAD","l1":"1 54665U 22166Z   26202.09704426  .00000017  00000-0  10772-4 0  9996","l2":"2 54665  87.9230 237.2453 0001756  96.1895 263.9439 13.21825217176181"},{"id":"54666","name":"ONEWEB-0602","type":"PAYLOAD","l1":"1 54666U 22166AA  26202.51673680  .00000062  00000-0  11894-3 0  9996","l2":"2 54666  87.9226 237.1675 0001994 101.8903 258.2454 13.21823879176085"},{"id":"54667","name":"ONEWEB-0603","type":"PAYLOAD","l1":"1 54667U 22166AB  26202.14413781  .00000037  00000-0  59168-4 0  9999","l2":"2 54667  87.9236 237.2017 0001976  95.9558 264.1801 13.21823854175968"},{"id":"54668","name":"ONEWEB-0604","type":"PAYLOAD","l1":"1 54668U 22166AC  26202.51084477  .00000150  00000-0  33280-3 0  9999","l2":"2 54668  87.9239 237.1450 0002063  96.2245 263.9124 13.21824474175972"},{"id":"54669","name":"ONEWEB-0605","type":"PAYLOAD","l1":"1 54669U 22166AD  26202.50411702  .00000075  00000-0  14971-3 0  9996","l2":"2 54669  87.9228 237.1565 0001715  79.3393 280.7934 13.21824285176042"},{"id":"54670","name":"ONEWEB-0606","type":"PAYLOAD","l1":"1 54670U 22166AE  26202.14750081  .00000019  00000-0  14118-4 0  9996","l2":"2 54670  87.9228 237.2399 0002190  97.6338 262.5044 13.21825591176052"},{"id":"54671","name":"ONEWEB-0607","type":"PAYLOAD","l1":"1 54671U 22166AF  26202.11387118 -.00000025  00000-0 -91836-4 0  9992","l2":"2 54671  87.9235 237.2199 0001926  97.3428 262.7925 13.21825950176028"},{"id":"54672","name":"ONEWEB-0608","type":"PAYLOAD","l1":"1 54672U 22166AG  26202.49906715  .00000083  00000-0  16986-3 0  9998","l2":"2 54672  87.9241 237.1411 0001533  87.3976 272.7334 13.21824332176087"},{"id":"54673","name":"ONEWEB-0610","type":"PAYLOAD","l1":"1 54673U 22166AH  26202.17611047 -.00000050  00000-0 -15235-3 0  9997","l2":"2 54673  87.9229 237.2160 0001447  97.6790 262.4508 13.21825428175948"},{"id":"54674","name":"ONEWEB-0611","type":"PAYLOAD","l1":"1 54674U 22166AJ  26202.54783969  .00000020  00000-0  15980-4 0  9995","l2":"2 54674  87.9225 237.1377 0002159  94.9259 265.2122 13.21824300175980"},{"id":"54675","name":"ONEWEB-0612","type":"PAYLOAD","l1":"1 54675U 22166AK  26202.18282759 -.00000029  00000-0 -10245-3 0  9996","l2":"2 54675  87.9240 237.2096 0001871  94.3767 265.7581 13.21826768175923"},{"id":"54676","name":"ONEWEB-0615","type":"PAYLOAD","l1":"1 54676U 22166AL  26202.54112438 -.00000042  00000-0 -13266-3 0  9994","l2":"2 54676  87.9229 237.1500 0002250  99.2343 260.9046 13.21824101175984"},{"id":"54677","name":"ONEWEB-0655","type":"PAYLOAD","l1":"1 54677U 22166AM  26202.51757787  .00000076  00000-0  15173-3 0  9998","l2":"2 54677  87.9228 237.1554 0001937 100.5963 259.5390 13.21824033175977"},{"id":"54678","name":"ONEWEB-0659","type":"PAYLOAD","l1":"1 54678U 22166AN  26202.53440096 -.00000057  00000-0 -16930-3 0  9996","l2":"2 54678  87.9229 237.1517 0002023  93.3664 266.7702 13.21824641176065"},{"id":"54679","name":"ONEWEB-0685","type":"PAYLOAD","l1":"1 54679U 22166AP  26202.53342432  .00029891  00000-0  71760-1 0  9997","l2":"2 54679  87.9146 237.1435 0002794  87.9800 272.1654 13.22148510175958"},{"id":"54680","name":"ONEWEB-0712","type":"PAYLOAD","l1":"1 54680U 22166AQ  26202.48662270 -.00000004  00000-0 -44825-4 0  9990","l2":"2 54680  87.9077 221.9616 0001930 106.8469 253.2874 13.16596052176572"},{"id":"54681","name":"ONEWEB-0714","type":"PAYLOAD","l1":"1 54681U 22166AR  26202.53945325 -.00000028  00000-0 -99027-4 0  9992","l2":"2 54681  87.9223 237.1402 0002043 103.3988 256.7374 13.21826364176078"},{"id":"55140","name":"ONEWEB-0532","type":"PAYLOAD","l1":"1 55140U 23004A   26202.43159254  .00000062  00000-0  12715-3 0  9996","l2":"2 55140  87.9155 359.0517 0001843  82.3674 277.7667 13.17649092172091"},{"id":"55141","name":"ONEWEB-0533","type":"PAYLOAD","l1":"1 55141U 23004B   26202.38295239  .00000513  00000-0  13917-2 0  9990","l2":"2 55141  87.8972 343.8720 0001653  98.2879 261.8438 13.12443005172548"},{"id":"55142","name":"ONEWEB-0541","type":"PAYLOAD","l1":"1 55142U 23004C   26202.43955012 -.00000279  00000-0 -82294-3 0  9995","l2":"2 55142  87.8896  14.2401 0001977  88.5838 271.5516 13.11418331170439"},{"id":"55143","name":"ONEWEB-0543","type":"PAYLOAD","l1":"1 55143U 23004D   26202.30829187  .00000072  00000-0  15052-3 0  9992","l2":"2 55143  87.9192 328.6838 0001950 105.3352 254.7995 13.18686762174199"},{"id":"55144","name":"ONEWEB-0544","type":"PAYLOAD","l1":"1 55144U 23004E   26202.37742437  .00000101  00000-0  22403-3 0  9993","l2":"2 55144  87.9194 328.6693 0002114 101.1612 258.9758 13.18684951174200"},{"id":"55145","name":"ONEWEB-0560","type":"PAYLOAD","l1":"1 55145U 23004F   26202.37068774  .00000141  00000-0  32408-3 0  9999","l2":"2 55145  87.9192 328.6602 0002139 103.9560 256.1810 13.18686004174219"},{"id":"55146","name":"ONEWEB-0565","type":"PAYLOAD","l1":"1 55146U 23004G   26202.36394223  .00000131  00000-0  29874-3 0  9992","l2":"2 55146  87.9183 328.6862 0002240  92.0601 268.0788 13.18685631174205"},{"id":"55147","name":"ONEWEB-0567","type":"PAYLOAD","l1":"1 55147U 23004H   26202.58481818 -.00000076  00000-0 -22622-3 0  9998","l2":"2 55147  87.9194 328.6296 0002246  96.5364 263.6024 13.18686510174234"},{"id":"55148","name":"ONEWEB-0569","type":"PAYLOAD","l1":"1 55148U 23004J   26202.59276422  .00000241  00000-0  62379-3 0  9998","l2":"2 55148  87.8990 313.3766 0002808 107.0801 253.0635 13.13470945174698"},{"id":"55149","name":"ONEWEB-0570","type":"PAYLOAD","l1":"1 55149U 23004K   26202.65226890  .00000039  00000-0  65246-4 0  9992","l2":"2 55149  87.9193 328.6135 0001916  85.3171 274.8180 13.18685226174232"},{"id":"55150","name":"ONEWEB-0571","type":"PAYLOAD","l1":"1 55150U 23004L   26202.34203037  .00000066  00000-0  13542-3 0  9999","l2":"2 55150  87.9193 328.6750 0003152  94.9327 265.2165 13.18686509174209"}]}